     2.11           N: GPS NAV DATA                         RINEX VERSION / TYPE
teqc  2018Dec12     gpsops              20220502 01:04:01UTCPGM / RUN BY / DATE
Linux 2.6.32-573.12.1.x86_64|x86_64|gcc -static|Linux 64|=+ COMMENT
CHPI                                    MARKER NAME         COMMENT
41609M003                               MARKER NUMBER       COMMENT
4164613.9484 -4162456.9866 -2445028.7316                    COMMENT
                                                            COMMENT
This data is provided as a public service by NASA/JPL.      COMMENT
No warranty is expressed or implied regarding suitability   COMMENT
for use.  For further information, contact:                 COMMENT
Dave Stowers, NASA/JPL m/s 238-600                          COMMENT
4800 Oak Grove Drive, Pasadena CA 91109 USA                 COMMENT
                                                            END OF HEADER
25 22  5  1  4  0  0.0 3.189570270479D-04 4.888534022029D-12 0.000000000000D+00
    6.600000000000D+01 1.149375000000D+02 4.412683805993D-09-2.117079244231D+00
    5.997717380524D-06 1.053186494391D-02 5.083158612251D-06 5.153684198380D+03
    1.440000000000D+04 9.872019290924D-08 8.826383456814D-01-1.136213541031D-07
    9.570433627547D-01 2.804062500000D+02 1.002908561179D+00-8.027477233791D-09
    3.178703834345D-10 1.000000000000D+00 2.208000000000D+03 0.000000000000D+00
    2.000000000000D+00 0.000000000000D+00 5.587935447693D-09 6.600000000000D+01
    7.218000000000D+03 4.000000000000D+00
13 22  5  1  4  0  0.0 3.036092966795D-04 6.707523425575D-12 0.000000000000D+00
    6.700000000000D+01-3.490625000000D+01 4.849130557180D-09 1.216228250183D+00
   -1.709908246994D-06 5.870239110664D-03 5.967915058136D-06 5.153668262482D+03
    1.440000000000D+04-8.381903171539D-08-1.070058168744D+00 1.061707735062D-07
    9.684072065272D-01 2.706562500000D+02 9.251302949330D-01-8.234628719625D-09
   -5.139499795082D-10 1.000000000000D+00 2.208000000000D+03 0.000000000000D+00
    2.000000000000D+00 0.000000000000D+00-1.117587089539D-08 6.700000000000D+01
    7.218000000000D+03 4.000000000000D+00
 5 22  5  1  4  0  0.0-8.022924885154D-05-1.364242052659D-12 0.000000000000D+00
    1.120000000000D+02 3.278125000000D+01 4.753055126681D-09 2.132116269029D+00
    1.683831214905D-06 5.943821626715D-03 8.424744009972D-06 5.153710201263D+03
    1.440000000000D+04-7.450580596924D-08-2.293811246743D+00-1.806765794754D-07
    9.603957477893D-01 2.182500000000D+02 1.014408409519D+00-7.954617056015D-09
    6.310977163245D-10 1.000000000000D+00 2.208000000000D+03 0.000000000000D+00
    2.000000000000D+00 0.000000000000D+00-1.117587089539D-08 1.120000000000D+02
    7.218000000000D+03 4.000000000000D+00
11 22  5  1  4 29 36.0-3.117974847555D-05 5.798028723802D-12 0.000000000000D+00
    3.000000000000D+00-8.600000000000D+01 4.219104314058D-09 1.842359318118D+00
   -4.712492227554D-06 3.233215538785D-04 1.090764999390D-05 5.153572547913D+03
    1.617600000000D+04 7.450580596924D-09 3.039005874382D+00-1.862645149231D-09
    9.630859005306D-01 1.699062500000D+02 2.859813094443D+00-7.803896492184D-09
    1.417916204758D-10 1.000000000000D+00 2.208000000000D+03 0.000000000000D+00
    2.000000000000D+00 6.300000000000D+01-8.847564458847D-09 3.000000000000D+00
    9.018000000000D+03 4.000000000000D+00
18 22  5  1  4  0  0.0 1.818905584514D-04-9.777068044059D-12 0.000000000000D+00
    2.130000000000D+02-7.865625000000D+01 3.997666518857D-09-2.171819653577D-01
   -4.064291715622D-06 2.257485175505D-03 1.126527786255D-05 5.153610403061D+03
    1.440000000000D+04 2.607703208923D-08 3.003728914212D+00 1.303851604462D-08
    9.717303785507D-01 1.667187500000D+02 3.045086857645D+00-7.737822311358D-09
    1.335769925893D-10 1.000000000000D+00 2.208000000000D+03 0.000000000000D+00
    2.000000000000D+00 0.000000000000D+00-8.381903171539D-09 4.690000000000D+02
    1.069200000000D+04 4.000000000000D+00
 5 22  5  1  3 59 44.0-8.022971451283D-05-1.364242052659D-12 0.000000000000D+00
    8.000000000000D+00 3.278125000000D+01 4.752697968947D-09 2.129782085218D+00
    1.683831214905D-06 5.943823489361D-03 8.424744009972D-06 5.153710195541D+03
    1.438400000000D+04-7.450580596924D-08-2.293811126783D+00-1.806765794754D-07
    9.603957492522D-01 2.182500000000D+02 1.014408950799D+00-7.954617056015D-09
    6.310977163245D-10 1.000000000000D+00 2.208000000000D+03 0.000000000000D+00
    2.000000000000D+00 0.000000000000D+00-1.117587089539D-08 8.000000000000D+00
    1.344600000000D+04 4.000000000000D+00
18 22  5  1  5 44 32.0 1.818295568228D-04-9.777068044059D-12 0.000000000000D+00
    2.140000000000D+02-8.146875000000D+01 3.903734034763D-09 6.976979698067D-01
   -4.218891263008D-06 2.258838620037D-03 1.088343560696D-05 5.153612838745D+03
    2.067200000000D+04 5.587935447693D-08 3.003680488697D+00 3.166496753693D-08
    9.717313543171D-01 1.774062500000D+02 3.045060093558D+00-7.706035273015D-09
    1.289339420448D-10 1.000000000000D+00 2.208000000000D+03 0.000000000000D+00
    2.000000000000D+00 0.000000000000D+00-8.381903171539D-09 4.700000000000D+02
    1.351800000000D+04 4.000000000000D+00
31 22  5  1  4  0  0.0-1.757312566042D-04-1.591615728103D-12 0.000000000000D+00
    8.000000000000D+01 4.131250000000D+01 4.319108479633D-09-1.663531439687D+00
    2.060085535049D-06 1.042756962124D-02 1.139938831329D-05 5.153732824326D+03
    1.440000000000D+04 6.519258022308D-08-1.340731650283D-01-1.359730958939D-07
    9.555237317302D-01 1.583437500000D+02 3.889282508913D-01-7.739250942295D-09
   -3.046555472693D-10 1.000000000000D+00 2.208000000000D+03 0.000000000000D+00
    2.000000000000D+00 0.000000000000D+00-1.350417733192D-08 8.000000000000D+01
    1.372200000000D+04 4.000000000000D+00
12 22  5  1  6  0  0.0-2.086134627461D-04-5.798028723802D-12 0.000000000000D+00
    8.300000000000D+01 1.079375000000D+02 4.434113270044D-09-7.638461046163D-01
    5.684792995453D-06 8.690314716659D-03 5.189329385757D-06 5.153559825897D+03
    2.160000000000D+04-7.636845111847D-08 9.602354982799D-01 1.210719347000D-07
    9.695040278943D-01 2.844687500000D+02 1.281647328064D+00-8.314989209819D-09
    2.639395655709D-10 1.000000000000D+00 2.208000000000D+03 0.000000000000D+00
    2.000000000000D+00 0.000000000000D+00-1.257285475731D-08 8.300000000000D+01
    1.441800000000D+04 4.000000000000D+00
25 22  5  1  6  0  0.0 3.189924173057D-04 4.888534022029D-12 0.000000000000D+00
    6.700000000000D+01 1.142812500000D+02 4.581619414267D-09-1.066929158133D+00
    5.992129445076D-06 1.053143851459D-02 5.379319190979D-06 5.153683740616D+03
    2.160000000000D+04 1.266598701477D-07 8.825807169495D-01 2.272427082062D-07
    9.570440415487D-01 2.739062500000D+02 1.002931650415D+00-8.314274894351D-09
    1.746501320219D-10 1.000000000000D+00 2.208000000000D+03 0.000000000000D+00
    2.000000000000D+00 0.000000000000D+00 5.587935447693D-09 6.700000000000D+01
    1.441800000000D+04 4.000000000000D+00
20 22  5  1  6  0  0.0 5.155755206943D-04-2.273736754432D-13 0.000000000000D+00
    6.100000000000D+01 2.540625000000D+01 5.033781105760D-09 1.544403305317D+00
    1.123175024986D-06 4.826929303817D-03 9.242445230484D-06 5.153560907364D+03
    2.160000000000D+04 6.705522537231D-08-2.409260777050D+00 5.960464477539D-08
    9.427827539317D-01 1.907812500000D+02-3.123890837198D+00-8.189626845116D-09
    5.985963625126D-10 1.000000000000D+00 2.208000000000D+03 0.000000000000D+00
    2.000000000000D+00 0.000000000000D+00-8.381903171539D-09 6.100000000000D+01
    1.441800000000D+04 4.000000000000D+00
 2 22  5  1  6  0  0.0-6.532687693834D-04 0.000000000000D+00 0.000000000000D+00
    8.700000000000D+01-1.094062500000D+02 4.170888019942D-09 6.710680828735D-01
   -5.800276994705D-06 2.045231009834D-02 1.040287315845D-05 5.153659521103D+03
    2.160000000000D+04-2.384185791016D-07 2.906203296130D+00-2.123415470123D-07
    9.660711662732D-01 1.836875000000D+02-1.421783384448D+00-8.214627886510D-09
   -3.250135381184D-11 1.000000000000D+00 2.208000000000D+03 0.000000000000D+00
    2.000000000000D+00 0.000000000000D+00-1.769512891769D-08 8.700000000000D+01
    1.441800000000D+04 4.000000000000D+00
 5 22  5  1  5 59 44.0-8.023949339986D-05-1.364242052659D-12 0.000000000000D+00
    2.800000000000D+01 2.721875000000D+01 4.714124933654D-09-3.103153421904D+00
    1.221895217896D-06 5.944658070803D-03 8.674338459969D-06 5.153708343506D+03
    2.158400000000D+04 5.215406417847D-08-2.293868067944D+00-1.471489667892D-07
    9.604004832551D-01 2.137500000000D+02 1.014319913216D+00-7.908900866038D-09
    6.432410792871D-10 1.000000000000D+00 2.208000000000D+03 0.000000000000D+00
    2.000000000000D+00 0.000000000000D+00-1.117587089539D-08 2.800000000000D+01
    1.441800000000D+04 4.000000000000D+00
29 22  5  1  6  0  0.0-5.089268088341D-04-4.092726157978D-12 0.000000000000D+00
    1.240000000000D+02-7.384375000000D+01 4.158387499245D-09 2.858354802111D+00
   -3.810971975327D-06 2.097895601764D-03 2.300366759300D-06 5.153713117599D+03
    2.160000000000D+04 1.862645149231D-09 2.011877099580D+00-3.725290298462D-08
    9.808762029853D-01 3.463750000000D+02 2.247457029915D+00-8.102837515707D-09
   -2.364384200378D-10 1.000000000000D+00 2.208000000000D+03 0.000000000000D+00
    2.000000000000D+00 0.000000000000D+00-1.024454832077D-08 1.240000000000D+02
    1.441800000000D+04 4.000000000000D+00
11 22  5  1  6  0  0.0-3.114854916930D-05 5.798028723802D-12 0.000000000000D+00
    4.000000000000D+00-9.475000000000D+01 4.072669643038D-09 2.629666495982D+00
   -4.868954420090D-06 3.223033854738D-04 1.103617250919D-05 5.153575542450D+03
    2.160000000000D+04-1.676380634308D-08 3.038963481941D+00 9.313225746155D-09
    9.630867329310D-01 1.615312500000D+02 2.863686153966D+00-7.796039022032D-09
    1.578637185147D-10 1.000000000000D+00 2.208000000000D+03 0.000000000000D+00
    2.000000000000D+00 6.300000000000D+01-8.847564458847D-09 4.000000000000D+00
    1.441800000000D+04 4.000000000000D+00
